{
  "type" : "FeatureCollection",
  "features" : [{"type":"Feature","id":8,"geometry":{"type":"Point","coordinates":[30.543463876000033,25.459897535000039]},"properties":{"OID":8,"Name":"لوحة توزيع الاهرام","code":"44"}},{"type":"Feature","id":20,"geometry":{"type":"Point","coordinates":[30.544096747000026,25.459447974000057]},"properties":{"OID":20,"Name":"لوحة توزيع فندق بدر","code":"44"}},{"type":"Feature","id":21,"geometry":{"type":"Point","coordinates":[30.595143000000064,25.501302000000067]},"properties":{"OID":21,"Name":"لوحة توزيع شركة الطحان","code":"44"}},{"type":"Feature","id":23,"geometry":{"type":"Point","coordinates":[30.54208600000004,25.459391000000039]},"properties":{"OID":23,"Name":"لوحة توزيع بئر الأمل القديم","code":"44"}},{"type":"Feature","id":24,"geometry":{"type":"Point","coordinates":[30.542659000000072,25.460012000000063]},"properties":{"OID":24,"Name":"لوحة توزيع الأستكشافي","code":"44"}},{"type":"Feature","id":25,"geometry":{"type":"Point","coordinates":[30.541259000000025,25.462596000000076]},"properties":{"OID":25,"Name":"لوحة توزيع المياة الجوفية","code":"44"}},{"type":"Feature","id":31,"geometry":{"type":"Point","coordinates":[30.541358000000059,25.457770000000039]},"properties":{"OID":31,"Name":"لوحة توزيع بئر الأمل الجديد","code":"44"}},{"type":"Feature","id":38,"geometry":{"type":"Point","coordinates":[30.541886475000069,25.461631505000071]},"properties":{"OID":38,"Name":"لوحة توزيع الامل الميجا","code":"44"}}]
}