{
  "type" : "FeatureCollection",
  "features" : [{"type":"Feature","id":1,"geometry":{"type":"Point","coordinates":[30.541001857000026,25.457301228000063]},"properties":{"OID":1,"Name":"محول كهرباء ","code":"49","discription":"200 KVA قدرة كهربائية "}},{"type":"Feature","id":2,"geometry":{"type":"Point","coordinates":[30.542415232000053,25.457176627000024]},"properties":{"OID":2,"Name":"محول كهرباء ","code":"49","discription":"137 KVA القدرة الكهربائية"}},{"type":"Feature","id":3,"geometry":{"type":"Point","coordinates":[30.544164688000023,25.459369250000066]},"properties":{"OID":3,"Name":"محول كهرباء ","code":"49","discription":"137 KVA القدرة الكهربائية"}}]
}