{
  "type" : "FeatureCollection",
  "features" : [{"type":"Feature","id":3,"geometry":{"type":"LineString","coordinates":[[30.541901789000065,25.463717177000035],[30.541894623000076,25.463529540000025],[30.543635369000071,25.463280841000028],[30.543901103000053,25.463284011000042],[30.543928941000047,25.463382110000055]]},"properties":{"OID":3,"Name":"خط كهربا/ بدايه مغذى البحوث الزراعيه","Shape_Length":0.0023139210547144617,"code":"4301","discription":"جهد متوسط  11 كيلو فولت - 150ملي - 3فاز"}},{"type":"Feature","id":14,"geometry":{"type":"LineString","coordinates":[[30.541854421000039,25.463714009000057],[30.541870351000057,25.463518523000062],[30.543573628000047,25.463256712000032],[30.543536436000068,25.463109389000067],[30.543665885000053,25.463055031000067],[30.543712298000059,25.462959355000066],[30.543766234000032,25.462856587000033],[30.543889986000067,25.462128799000027],[30.543907878000027,25.461936951000041],[30.543883591000053,25.461913082000024]]},"properties":{"OID":14,"Name":"خط كهربا/ مغذى العائلات ــ الامل الجديد","Shape_Length":0.0033991277567483689,"code":"4301","discription":"جهد متوسط  11 كيلو فولت - 150ملي - 3فاز"}},{"type":"Feature","id":15,"geometry":{"type":"LineString","coordinates":[[30.54389334900003,25.46190933400004],[30.543915730000037,25.46191230900007],[30.544152345000043,25.460183435000033],[30.544205016000035,25.459908042000052],[30.544165235000037,25.459447978000071],[30.544113064000044,25.459445685000048]]},"properties":{"OID":15,"Name":"خط كهربا/ الامل الجديد ــ فندق بدر","Shape_Length":0.0025619550846997601,"code":"4301","discription":"جهد متوسط  11 كيلو فولت - 150ملي - 3فاز"}},{"type":"Feature","id":16,"geometry":{"type":"LineString","coordinates":[[30.54416896400005,25.459369738000078],[30.54420175100006,25.459940908000078],[30.544335956000054,25.459932938000065]]},"properties":{"OID":16,"Name":"خط كهربا/ فندق بدر ــ نادى العائلات","Shape_Length":0.00070655171377052405,"code":"4301","discription":"جهد متوسط  11 كيلو فولت - 150ملي - 3فاز"}},{"type":"Feature","id":23,"geometry":{"type":"LineString","coordinates":[[30.541832133000071,25.463719462000029],[30.541792475000079,25.46326115100004],[30.541706993000048,25.463128442000027],[30.541689505000079,25.462890679000054],[30.541749782000068,25.462448247000054],[30.541789854000058,25.462006076000023],[30.541843381000035,25.461623305000046],[30.54188455600007,25.461623011000029]]},"properties":{"OID":23,"Name":"خط كهربا/ مغذى الامل ــ عمارات الامل","Shape_Length":0.0021744597646695088,"code":"4301","discription":"جهد متوسط  11 كيلو فولت - 150ملي - 3فاز"}},{"type":"Feature","id":24,"geometry":{"type":"LineString","coordinates":[[30.541386401000068,25.462389095000049],[30.541399906000038,25.462613468000029],[30.541266930000063,25.462604981000027]]},"properties":{"OID":24,"Name":"خط كهربا/ الاحوال المدنيه ــ المياه الجوفيه","Shape_Length":0.00035802562513213848,"code":"4301","discription":"جهد متوسط  11 كيلو فولت - 150ملي - 3فاز"}},{"type":"Feature","id":29,"geometry":{"type":"LineString","coordinates":[[30.541831471000023,25.463709830000028],[30.541770365000048,25.463269298000057],[30.541688427000054,25.463127085000053],[30.541737863000037,25.462392697000041],[30.541640147000066,25.462337632000072],[30.541841957000031,25.460350580000068],[30.541611656000043,25.460316909000028],[30.541271473000052,25.460364335000065],[30.541104111000038,25.460413065000068],[30.541045548000056,25.460326536000025]]},"properties":{"OID":29,"Name":"خط كهربا/ مغذى بئر الجمهوره","Shape_Length":0.0043093842675488905,"code":"4301","discription":"جهد متوسط  11 كيلو فولت - 150ملي - 3فاز"}},{"type":"Feature","id":30,"geometry":{"type":"LineString","coordinates":[[30.541040803000044,25.46034525400006],[30.541270363000024,25.460275053000032],[30.541539420000049,25.460259445000077],[30.541812591000053,25.46022834200005],[30.542117976000043,25.460206496000069],[30.542688307000049,25.460134882000034],[30.542662571000051,25.460034628000074]]},"properties":{"OID":30,"Name":"خط كهربا/ بئر الجمهوره ــ سوزان مبارك الاستكشافى","Shape_Length":0.0017689789694900662,"code":"4301","discription":"جهد متوسط  11 كيلو فولت - 150ملي - 3فاز"}},{"type":"Feature","id":31,"geometry":{"type":"LineString","coordinates":[[30.542679300000032,25.460043030000065],[30.542700706000062,25.460120257000028],[30.543415602000039,25.460056597000062],[30.543431799000075,25.459920483000076]]},"properties":{"OID":31,"Name":"خط كهربا/ سوزان مبارك الاستكشافى ــ الاهرام","Shape_Length":0.0009349378931505038,"code":"4301","discription":"جهد متوسط  11 كيلو فولت - 150ملي - 3فاز"}},{"type":"Feature","id":32,"geometry":{"type":"LineString","coordinates":[[30.543464633000042,25.45994188700007],[30.543429849000063,25.460060507000037],[30.542742386000043,25.460125269000059],[30.542144832000076,25.460113618000037],[30.541892254000061,25.459476996000035],[30.542078223000033,25.459427387000062]]},"properties":{"OID":32,"Name":"خط كهربا/ الاهرام ــ بئر الامل القديم","Shape_Length":0.0022891577498436147,"code":"4301","discription":"جهد متوسط  11 كيلو فولت - 150ملي - 3فاز"}},{"type":"Feature","id":33,"geometry":{"type":"LineString","coordinates":[[30.542071957000076,25.459418621000054],[30.541889267000045,25.459471045000043],[30.541254149000054,25.458013139000059],[30.541148700000065,25.45769782900004],[30.542169189000049,25.457192302000067],[30.542399144000058,25.457173982000029]]},"properties":{"OID":33,"Name":"خط كهربا/ بئر الامل القديم ــ المدرسه اليابانيه","Shape_Length":0.0034823018641063222,"code":"4301","discription":"جهد متوسط  11 كيلو فولت - 150ملي - 3فاز"}},{"type":"Feature","id":34,"geometry":{"type":"LineString","coordinates":[[30.542391700000053,25.457182655000054],[30.542171260000032,25.457198385000027],[30.541155551000031,25.457700633000059],[30.541195807000065,25.457819510000036],[30.541322609000076,25.45776055400006]]},"properties":{"OID":34,"Name":"خط كهربا/ المدرسه اليابانيه ــ بئر الامل الجديد","Shape_Length":0.0016194472142269591,"code":"4301","discription":"جهد متوسط  11 كيلو فولت - 150ملي - 3فاز"}},{"type":"Feature","id":36,"geometry":{"type":"LineString","coordinates":[[30.540361161000078,25.457525824000072],[30.540859718000036,25.457402848000072],[30.540844411000023,25.457436231000031],[30.541298719000054,25.45839124500003],[30.541618970000059,25.458973889000049],[30.541743175000079,25.45934714200007],[30.54192114500006,25.459853547000023],[30.541873794000026,25.460383797000077],[30.541648331000033,25.462353506000056],[30.541553251000039,25.463158361000069],[30.541531107000026,25.463498704000074],[30.541808497000034,25.463544252000077],[30.541818672000034,25.463704828000061]]},"properties":{"OID":36,"Name":"خط كهربا/ مغذى السلام ــ السلام البحرى","Shape_Length":0.0073112399608682259,"code":"4301","discription":"جهد متوسط  11 كيلو فولت - 150ملي - 3فاز"}},{"type":"Feature","id":37,"geometry":{"type":"LineString","coordinates":[[30.541878404000045,25.463716702000056],[30.541885330000071,25.463517985000067],[30.543608597000059,25.463279156000056],[30.543952832000059,25.463289289000045],[30.543996351000033,25.463095782000039],[30.544045778000054,25.462449253000045],[30.544201225000052,25.461063646000071],[30.544272155000044,25.460229111000046],[30.545192648000068,25.459806177000075],[30.546692768000071,25.459110094000039],[30.547932734000028,25.458510059000048]]},"properties":{"OID":37,"Name":"خط كهربا/ مغذى بئر 39 سرور","Shape_Length":0.0094058339446274741,"code":"4200","discription":"جهد متوسط  11 كيلو فولت - 240 ملي - 3فاز"}},{"type":"Feature","id":64,"geometry":{"type":"LineString","coordinates":[[30.541873037000073,25.461616468000045],[30.54170081500007,25.461611636000043],[30.541634663000025,25.462198329000046],[30.541376322000076,25.462223352000024],[30.541387802000031,25.462601026000073],[30.541268023000043,25.462595097000076]]},"properties":{"OID":64,"Name":"خط كهربا/ المياه الجوفيه ــ عمارات الامل","Shape_Length":0.0015200245721057129,"code":"4301","discription":"جهد متوسط  11 كيلو فولت - 150ملي - 3فاز"}},{"type":"Feature","id":102,"geometry":{"type":"LineString","coordinates":[[30.540990987000043,25.457304180000051],[30.540826630000026,25.457354323000061],[30.541588502000025,25.458894297000029],[30.541813792000028,25.459557304000043],[30.541938031000029,25.459869579000042],[30.541897572000039,25.46020599700006],[30.54168082800004,25.461762661000023],[30.54163298800006,25.462402143000077],[30.54152984600006,25.463490292000074],[30.541815357000075,25.463542441000072],[30.541828581000061,25.463708129000054]]},"properties":{"OID":102,"Name":"خط كهربا/ مغذى احمد فخرى","Shape_Length":0.0070275532119834123,"code":"4200","discription":"جهد متوسط  11 كيلو فولت - 240 ملي - 3فاز"}},{"type":"Feature","id":105,"geometry":{"type":"LineString","coordinates":[[30.544335956000054,25.459932938000065],[30.544349445000023,25.460044954000068],[30.547217399000033,25.458724623000023],[30.547290456000042,25.458843416000036]]},"properties":{"OID":105,"Name":"خط كهربا/ نادى العائلات ــ مديريه الامن","Shape_Length":0.0034095679967792551,"code":"4301","discription":"جهد متوسط  11 كيلو فولت - 150ملي - 3فاز"}},{"type":"Feature","id":108,"geometry":{"type":"LineString","coordinates":[[30.540651156000024,25.460460794000028],[30.540880268000024,25.460351111000023],[30.541023475000031,25.460318341000061],[30.541728966000051,25.460256687000026],[30.541856753000047,25.460257298000045],[30.542057563000071,25.46029855200004],[30.54185624400003,25.461612548000062],[30.541706422000061,25.461607370000024],[30.541637396000056,25.462184652000076],[30.541386856000031,25.462212808000061],[30.541394508000053,25.462379905000034]]},"properties":{"OID":108,"Name":"خط كهربا/ مغذى النور الغربى ","Shape_Length":0.003921917314673457,"code":"4301","discription":"جهد متوسط  11 كيلو فولت - 150ملي - 3فاز"}},{"type":"Feature","id":110,"geometry":{"type":"LineString","coordinates":[[30.54065507200005,25.460465357000032],[30.540863380000076,25.460366110000052],[30.541020759000048,25.460334179000029],[30.541072155000052,25.460446226000045],[30.541295837000064,25.460361056000067],[30.541601999000079,25.460324430000071],[30.541850555000053,25.460350401000028],[30.541756498000041,25.461192555000025],[30.541627546000029,25.462341976000062],[30.541750208000053,25.462376249000044],[30.541687779000029,25.462841283000046],[30.54169465700005,25.463142662000052],[30.541793643000062,25.463277700000049],[30.541839946000039,25.463714404000029]]},"properties":{"OID":110,"Name":"خط كهربا/ مغذى النور الغربى","Shape_Length":0.0048208322618047642,"code":"4301","discription":"جهد متوسط  11 كيلو فولت - 150ملي - 3فاز"}},{"type":"Feature","id":113,"geometry":{"type":"LineString","coordinates":[[30.541301679000071,25.457788400000027],[30.541207272000065,25.457838545000072],[30.541133233000039,25.457869390000042],[30.540908369000078,25.457378575000064],[30.540842027000053,25.457385850000037],[30.540358508000054,25.457510372000058]]},"properties":{"OID":113,"Name":"خط كهربا/ بئر الامل الجديد ــ السلام البحرى","Shape_Length":0.0012930141000489213,"code":"4301","discription":"جهد متوسط  11 كيلو فولت - 150ملي - 3فاز"}},{"type":"Feature","id":115,"geometry":{"type":"LineString","coordinates":[[30.540684106000072,25.456778187000054],[30.541156788000023,25.457775640000023],[30.542054066000048,25.459900595000079],[30.542063485000028,25.460274598000069],[30.541867956000033,25.461526998000068],[30.541765547000068,25.46252008700003],[30.541710987000044,25.463124310000069],[30.541875517000051,25.463324621000027],[30.541884519000064,25.463696048000031]]},"properties":{"OID":115,"Name":"خط كهربا/ دخول 5 و6","Shape_Length":0.0072878996527223966,"code":"4100","discription":"جهد متوسط  11 كيلو فولت - 400ملي - 1فاز"}},{"type":"Feature","id":116,"geometry":{"type":"LineString","coordinates":[[30.54342944800004,25.460060545000033],[30.544149186000027,25.460021397000048],[30.544165480000061,25.459369525000056]]},"properties":{"OID":116,"Name":"خط كهربا/ الاهرام ــ فندق بدر","Shape_Length":0.0013728774911945705,"code":"4301","discription":"جهد متوسط  11 كيلو فولت - 150ملي - 3فاز"}},{"type":"Feature","id":117,"geometry":{"type":"LineString","coordinates":[[30.543415606000053,25.460056561000044],[30.544137355000032,25.46001007600006],[30.54416391500007,25.459369618000039]]},"properties":{"OID":117,"Name":"خط كهربا/ الاهرام ــ فندق بدر","Shape_Length":0.0013642528976689058,"code":"4301","discription":"جهد متوسط  11 كيلو فولت - 150ملي - 3فاز"}}]
}