{
  "type" : "FeatureCollection",
  "features" : [{"type":"Feature","id":1,"geometry":{"type":"LineString","coordinates":[[30.54334692216932,25.460164144319375],[30.543358181920933,25.460265701922648],[30.543349930235422,25.460276315023478],[30.543236657839849,25.460428583822271],[30.543205087184177,25.460608522827698],[30.543153868319354,25.460797924131064],[30.543119927696377,25.46086551110826],[30.543057788532103,25.460988686018144]]},"properties":{"OBJECTID":1,"Shape_Length":98.162603177423776,"code":"7292","discription":"عمق 1 م - 63 ملي","Name":"خط غاز"}},{"type":"Feature","id":2,"geometry":{"type":"LineString","coordinates":[[30.544112734479317,25.461130520029606],[30.544141536336078,25.460825594938694],[30.544186220058801,25.460333128407683],[30.544195676193926,25.460002877130773],[30.544227277687785,25.459446451869496],[30.544208910369395,25.459070041955698],[30.544206520048437,25.458958649497518],[30.54421203341813,25.458843357597686],[30.544222849020713,25.45883144344041],[30.544243678429588,25.458815857143975],[30.544396803196623,25.458773302969931],[30.544493832478651,25.458775118802443],[30.544675569379311,25.458760689290287]]},"properties":{"OBJECTID":2,"Shape_Length":302.57476564402009,"code":"7296","discription":"عمق 1 م - 180 ملي","Name":"خط غاز"}},{"type":"Feature","id":3,"geometry":{"type":"LineString","coordinates":[[30.540846992255851,25.460438466764984],[30.541011606703972,25.460403020424096],[30.541124992502652,25.460390905679425],[30.541212559735975,25.460379702075677],[30.541619713489617,25.460303778497984],[30.541897814683772,25.46025122594461],[30.54219971140305,25.46021404643265],[30.542573585028478,25.460204374043297],[30.542923068462674,25.460187764690097],[30.543429913215494,25.460159582285883],[30.543725073671993,25.460141677478934],[30.544117894743849,25.460125790770029],[30.544192299346506,25.460120812546332]]},"properties":{"OBJECTID":3,"Shape_Length":339.20234493922624,"code":"7296","discription":"عمق 1 م - 180 ملي","Name":"خط غاز"}},{"type":"Feature","id":4,"geometry":{"type":"LineString","coordinates":[[30.540130933279219,25.455547537909258],[30.540161416707875,25.455670728409164],[30.540195041934268,25.455764213634872],[30.540229058772297,25.455859241312989],[30.540272760201336,25.455945983911722],[30.540328148139299,25.456113172832215],[30.540339036482965,25.45620166922539],[30.540476308971773,25.456553769947405],[30.540518583674903,25.456669094594261],[30.540622568849965,25.456879911017815],[30.540665696526606,25.456984498673737],[30.540726523796401,25.45710263005261],[30.540786194642667,25.457194439850774],[30.540850280942806,25.457339503949168],[30.540899220735515,25.457418270753291],[30.540998668845354,25.457613076031482],[30.541098358014665,25.457837643238499],[30.541144857750417,25.457953230537978],[30.541234336423365,25.45815996378996],[30.541283606610055,25.458253710993542],[30.541318718362877,25.458367763515756],[30.541379336565964,25.458444230056603],[30.541472758419296,25.458654677017371],[30.541571062300569,25.458864245798395],[30.541622274622238,25.458956105585724],[30.541700457094777,25.459115228622384],[30.541725987128423,25.459190915171185],[30.541805422425924,25.459402855512703],[30.541871922174039,25.459543735991986],[30.541929982310968,25.459694074395472],[30.54198598706687,25.459841498546602],[30.542017300160307,25.460142482412834],[30.54202622380474,25.460235412045041]]},"properties":{"OBJECTID":4,"Shape_Length":556.59237578223667,"code":"7292","discription":"عمق 1 م - 63 ملي","Name":"خط غاز"}}]
}