{
  "type" : "FeatureCollection",
  "features" : [{"type":"Feature","id":1,"geometry":{"type":"Point","coordinates":[30.542021503000058,25.460345860000075]},"properties":{"OID":1,"Name":"old manhole","code":"38","discription":"عمق 0.5 م"}},{"type":"Feature","id":2,"geometry":{"type":"Point","coordinates":[30.541469960000029,25.458650245000058]},"properties":{"OID":2,"Name":"old manhole","code":"38","discription":"عمق 0.5 م"}},{"type":"Feature","id":3,"geometry":{"type":"Point","coordinates":[30.540600245000064,25.456756648000066]},"properties":{"OID":3,"Name":"old manhole","code":"38","discription":"عمق 0.5 م"}},{"type":"Feature","id":4,"geometry":{"type":"Point","coordinates":[30.540073094000036,25.455309118000059]},"properties":{"OID":4,"Name":"old manhole","code":"38","discription":"عمق 0.5 م"}},{"type":"Feature","id":5,"geometry":{"type":"Point","coordinates":[30.54178401300004,25.462527649000037]},"properties":{"OID":5,"Name":"old manhole","code":"38","discription":"عمق 0.5 م"}},{"type":"Feature","id":6,"geometry":{"type":"Point","coordinates":[30.541690208000034,25.463445771000067]},"properties":{"OID":6,"Name":"old manhole","code":"38","discription":"عمق 0.5 م"}}]
}