{
  "type" : "FeatureCollection",
  "features" : [{"type":"Feature","id":1,"geometry":{"type":"LineString","coordinates":[[30.540073094000036,25.455309118000059],[30.540095312000062,25.455381680000073],[30.540319464000049,25.456124435000049],[30.540599710000038,25.456755482000062],[30.541470418000074,25.45865124200003],[30.541986861000055,25.459913710000023],[30.542017195000028,25.460178337000059],[30.542025078000052,25.460484895000036],[30.542139320000047,25.46051634500003]]},"properties":{"OID":1,"Name":"كابل تليفونات","Shape_Length":0.0056838858016204754,"code":"3301","discription":"عمق 0.5 م - قطر 55 ملي"}},{"type":"Feature","id":2,"geometry":{"type":"LineString","coordinates":[[30.540094157000055,25.455377909000049],[30.540044488000035,25.455390396000041]]},"properties":{"OID":2,"Name":"كابل تليفونات","Shape_Length":5.121459491041895e-05,"code":"3301","discription":"عمق 0.5 م - قطر 55 ملي"}},{"type":"Feature","id":3,"geometry":{"type":"LineString","coordinates":[[30.542019534000076,25.460269293000067],[30.541261951000024,25.460318638000047],[30.541286099000047,25.460417588000041]]},"properties":{"OID":3,"Name":"كابل تليفونات","Shape_Length":0.00086104229322080431,"code":"3301","discription":"عمق 0.9 م - قطر 110 ملي"}},{"type":"Feature","id":4,"geometry":{"type":"LineString","coordinates":[[30.542025194000075,25.460484926000049],[30.54178401300004,25.462527649000037],[30.541690208000034,25.463445771000067]]},"properties":{"OID":4,"Name":"كابل تليفونات","Shape_Length":0.0029798132601799154,"code":"3301","discription":"عمق 0.5 م - قطر 55 ملي"}},{"type":"Feature","id":5,"geometry":{"type":"LineString","coordinates":[[30.541756894000059,25.462793078000061],[30.542105420000041,25.462940784000068]]},"properties":{"OID":5,"Name":"كابل تليفونات","Shape_Length":0.00037853326815690544,"code":"3301","discription":"عمق 0.5 م - قطر 55 ملي"}},{"type":"Feature","id":6,"geometry":{"type":"LineString","coordinates":[[30.541974755000069,25.460912138000026],[30.542530556000031,25.461142629000051],[30.542551526000068,25.461099752000052]]},"properties":{"OID":6,"Name":"كابل تليفونات","Shape_Length":0.00064942857025882851,"code":"3301","discription":"عمق 0.5 م - قطر 55 ملي"}},{"type":"Feature","id":7,"geometry":{"type":"LineString","coordinates":[[30.544168145000071,25.458285770000032],[30.544244645000049,25.458286499000053],[30.54420142400005,25.457603916000039],[30.54389442400003,25.456835567000041],[30.542350741000064,25.457204262000062],[30.542178273000047,25.457217324000055],[30.541034299000046,25.457701707000069]]},"properties":{"OID":7,"Name":"كابل تليفونات","Shape_Length":0.004590226306570821,"code":"3301","discription":"عمق 0.5 م - قطر 55 ملي"}},{"type":"Feature","id":8,"geometry":{"type":"LineString","coordinates":[[30.542352657000038,25.457203804000073],[30.542371204000062,25.457268947000046]]},"properties":{"OID":8,"Name":"كابل تليفونات","Shape_Length":6.77318363495068e-05,"code":"3301","discription":"عمق 0.5 م - قطر 55 ملي"}}]
}