{
  "type" : "FeatureCollection",
  "features" : [{"type":"Feature","id":1,"geometry":{"type":"Point","coordinates":[30.544199925000044,25.460144419000073]},"properties":{"OID":1,"Name":"مطبق","discription":"عمق 3.5م","code":"503"}},{"type":"Feature","id":2,"geometry":{"type":"Point","coordinates":[30.544030602000078,25.460148741000069]},"properties":{"OID":2,"Name":"مطبق","discription":"عمق 3.4م","code":"503"}},{"type":"Feature","id":3,"geometry":{"type":"Point","coordinates":[30.543610794000074,25.460175941000045]},"properties":{"OID":3,"Name":"مطبق","discription":"عمق 3.3م","code":"503"}},{"type":"Feature","id":4,"geometry":{"type":"Point","coordinates":[30.543254557000068,25.460178748000033]},"properties":{"OID":4,"Name":"مطبق","discription":"عمق 3.2م","code":"503"}},{"type":"Feature","id":5,"geometry":{"type":"Point","coordinates":[30.542786917000058,25.460197978000053]},"properties":{"OID":5,"Name":"مطبق","discription":"عمق 3.1م","code":"503"}},{"type":"Feature","id":6,"geometry":{"type":"Point","coordinates":[30.542018016000043,25.460231832000034]},"properties":{"OID":6,"Name":"مطبق","discription":"عمق 3م","code":"503"}},{"type":"Feature","id":7,"geometry":{"type":"Point","coordinates":[30.54198801900003,25.46049574500006]},"properties":{"OID":7,"Name":"مطبق","discription":"عمق 2.5م","code":"502"}},{"type":"Feature","id":8,"geometry":{"type":"Point","coordinates":[30.541916651000065,25.46073455800007]},"properties":{"OID":8,"Name":"مطبق","discription":"عمق 2م","code":"502"}},{"type":"Feature","id":9,"geometry":{"type":"Point","coordinates":[30.54194136600006,25.460859837000044]},"properties":{"OID":9,"Name":"مطبق","discription":"عمق 2.5م","code":"502"}},{"type":"Feature","id":10,"geometry":{"type":"Point","coordinates":[30.54191084200005,25.461228606000077]},"properties":{"OID":10,"Name":"مطبق","discription":"عمق 2.5م","code":"502"}},{"type":"Feature","id":11,"geometry":{"type":"Point","coordinates":[30.541878604000033,25.461175505000028]},"properties":{"OID":11,"Name":"مطبق","discription":"عمق 3م","code":"503"}},{"type":"Feature","id":12,"geometry":{"type":"Point","coordinates":[30.541841531000046,25.461276311000063]},"properties":{"OID":12,"Name":"مطبق","discription":"عمق 2م","code":"502"}},{"type":"Feature","id":13,"geometry":{"type":"Point","coordinates":[30.541478384000072,25.461287537000032]},"properties":{"OID":13,"Name":"مطبق","discription":"عمق 2.5م","code":"502"}},{"type":"Feature","id":14,"geometry":{"type":"Point","coordinates":[30.541059416000053,25.461332731000027]},"properties":{"OID":14,"Name":"مطبق","discription":"عمق 3م","code":"503"}},{"type":"Feature","id":16,"geometry":{"type":"Point","coordinates":[30.541935817000024,25.459817895000072]},"properties":{"OID":16,"Name":"مطبق","discription":"عمق 3م","code":"503"}},{"type":"Feature","id":17,"geometry":{"type":"Point","coordinates":[30.541876609000042,25.459797181000056]},"properties":{"OID":17,"Name":"مطبق","discription":"عمق 3م","code":"503"}},{"type":"Feature","id":18,"geometry":{"type":"Point","coordinates":[30.541833231000055,25.459524737000038]},"properties":{"OID":18,"Name":"مطبق","discription":"عمق 3م","code":"503"}},{"type":"Feature","id":19,"geometry":{"type":"Point","coordinates":[30.541854803000035,25.459329340000068]},"properties":{"OID":19,"Name":"مطبق","discription":"عمق 2.5م","code":"502"}},{"type":"Feature","id":20,"geometry":{"type":"Point","coordinates":[30.542048236000028,25.45982790000005]},"properties":{"OID":20,"Name":"مطبق","discription":"عمق 2.5م","code":"502"}},{"type":"Feature","id":21,"geometry":{"type":"Point","coordinates":[30.54169196600003,25.459188976000064]},"properties":{"OID":21,"Name":"مطبق","discription":"عمق 3م","code":"503"}},{"type":"Feature","id":22,"geometry":{"type":"Point","coordinates":[30.541624140000067,25.458999168000048]},"properties":{"OID":22,"Name":"مطبق","discription":"عمق 3م","code":"503"}},{"type":"Feature","id":23,"geometry":{"type":"Point","coordinates":[30.541570517000025,25.458891526000059]},"properties":{"OID":23,"Name":"مطبق","discription":"عمق 3م","code":"503"}},{"type":"Feature","id":24,"geometry":{"type":"Point","coordinates":[30.541450248000046,25.458522209000023]},"properties":{"OID":24,"Name":"مطبق","discription":"عمق 2.5م","code":"502"}},{"type":"Feature","id":25,"geometry":{"type":"Point","coordinates":[30.541339802000039,25.458422021000047]},"properties":{"OID":25,"Name":"مطبق","discription":"عمق 3م","code":"503"}},{"type":"Feature","id":26,"geometry":{"type":"Point","coordinates":[30.541180496000038,25.458115955000039]},"properties":{"OID":26,"Name":"مطبق","discription":"عمق 2.5م","code":"502"}},{"type":"Feature","id":27,"geometry":{"type":"Point","coordinates":[30.541042589000028,25.457906527000034]},"properties":{"OID":27,"Name":"مطبق","discription":"عمق 3م","code":"503"}},{"type":"Feature","id":28,"geometry":{"type":"Point","coordinates":[30.541115897000054,25.457876512000041]},"properties":{"OID":28,"Name":"مطبق","discription":"عمق 3م","code":"503"}},{"type":"Feature","id":29,"geometry":{"type":"Point","coordinates":[30.54095935600003,25.457656933000067]},"properties":{"OID":29,"Name":"مطبق","discription":"عمق 3م","code":"503"}},{"type":"Feature","id":30,"geometry":{"type":"Point","coordinates":[30.540856039000062,25.45736824200003]},"properties":{"OID":30,"Name":"مطبق","discription":"عمق 2.5م","code":"502"}},{"type":"Feature","id":31,"geometry":{"type":"Point","coordinates":[30.54086852100005,25.457410252000045]},"properties":{"OID":31,"Name":"مطبق","discription":"عمق 3م","code":"503"}},{"type":"Feature","id":32,"geometry":{"type":"Point","coordinates":[30.540669921000074,25.457162760000074]},"properties":{"OID":32,"Name":"مطبق","discription":"عمق 3م","code":"503"}},{"type":"Feature","id":33,"geometry":{"type":"Point","coordinates":[30.540709442000036,25.457131347000029]},"properties":{"OID":33,"Name":"مطبق","discription":"عمق 3م","code":"503"}},{"type":"Feature","id":34,"geometry":{"type":"Point","coordinates":[30.540518341000052,25.45662997900007]},"properties":{"OID":34,"Name":"مطبق","discription":"عمق 2.5م","code":"502"}},{"type":"Feature","id":35,"geometry":{"type":"Point","coordinates":[30.540472477000037,25.456635813000048]},"properties":{"OID":35,"Name":"مطبق","discription":"عمق 3م","code":"503"}},{"type":"Feature","id":36,"geometry":{"type":"Point","coordinates":[30.541651589000026,25.457427283000072]},"properties":{"OID":36,"Name":"مطبق","discription":"عمق 2م","code":"502"}},{"type":"Feature","id":37,"geometry":{"type":"Point","coordinates":[30.541429979000043,25.457532343000025]},"properties":{"OID":37,"Name":"مطبق","discription":"عمق 2م","code":"502"}},{"type":"Feature","id":38,"geometry":{"type":"Point","coordinates":[30.541797461000044,25.457358419000059]},"properties":{"OID":38,"Name":"مطبق","discription":"عمق 2م","code":"502"}},{"type":"Feature","id":39,"geometry":{"type":"Point","coordinates":[30.541890946000024,25.457292482000071]},"properties":{"OID":39,"Name":"مطبق","discription":"عمق 2م","code":"502"}},{"type":"Feature","id":40,"geometry":{"type":"Point","coordinates":[30.542357632000062,25.457184768000047]},"properties":{"OID":40,"Name":"مطبق","discription":"عمق 2م","code":"502"}},{"type":"Feature","id":41,"geometry":{"type":"Point","coordinates":[30.542287348000059,25.457185554000034]},"properties":{"OID":41,"Name":"مطبق","discription":"عمق 2م","code":"502"}},{"type":"Feature","id":42,"geometry":{"type":"Point","coordinates":[30.543623800000034,25.455776000000071]},"properties":{"OID":42,"Name":"مطبق","discription":"عمق 2.5م","code":"502"}},{"type":"Feature","id":43,"geometry":{"type":"Point","coordinates":[30.543683122000061,25.455904793000059]},"properties":{"OID":43,"Name":"مطبق","discription":"عمق 2.6م","code":"502"}},{"type":"Feature","id":44,"geometry":{"type":"Point","coordinates":[30.543727017000037,25.456057243000032]},"properties":{"OID":44,"Name":"مطبق","discription":"عمق 2.6م","code":"502"}},{"type":"Feature","id":45,"geometry":{"type":"Point","coordinates":[30.543746920000046,25.456137650000073]},"properties":{"OID":45,"Name":"مطبق","discription":"عمق 2.7م","code":"502"}},{"type":"Feature","id":46,"geometry":{"type":"Point","coordinates":[30.543845474000079,25.456354574000045]},"properties":{"OID":46,"Name":"مطبق","discription":"عمق 2.7م","code":"502"}},{"type":"Feature","id":47,"geometry":{"type":"Point","coordinates":[30.543877147000046,25.456424373000061]},"properties":{"OID":47,"Name":"مطبق","discription":"عمق 2.8م","code":"502"}},{"type":"Feature","id":48,"geometry":{"type":"Point","coordinates":[30.543996177000054,25.45669102100004]},"properties":{"OID":48,"Name":"مطبق","discription":"عمق 2.8م","code":"502"}},{"type":"Feature","id":49,"geometry":{"type":"Point","coordinates":[30.544058423000024,25.456743900000049]},"properties":{"OID":49,"Name":"مطبق","discription":"عمق 2م","code":"503"}},{"type":"Feature","id":50,"geometry":{"type":"Point","coordinates":[30.544115230000045,25.456961295000042]},"properties":{"OID":50,"Name":"مطبق","discription":"عمق 3م","code":"503"}},{"type":"Feature","id":51,"geometry":{"type":"Point","coordinates":[30.544195485000046,25.457059257000026]},"properties":{"OID":51,"Name":"مطبق","discription":"عمق 3م","code":"503"}},{"type":"Feature","id":52,"geometry":{"type":"Point","coordinates":[30.544219441000052,25.457232790000035]},"properties":{"OID":52,"Name":"مطبق","discription":"عمق 3.2م","code":"503"}},{"type":"Feature","id":53,"geometry":{"type":"Point","coordinates":[30.544340913000042,25.457449609000037]},"properties":{"OID":53,"Name":"مطبق","discription":"عمق 3.2م","code":"503"}},{"type":"Feature","id":54,"geometry":{"type":"Point","coordinates":[30.544277199000078,25.457520260000024]},"properties":{"OID":54,"Name":"مطبق","discription":"عمق 3.4م","code":"503"}},{"type":"Feature","id":55,"geometry":{"type":"Point","coordinates":[30.544329169000036,25.457801164000045]},"properties":{"OID":55,"Name":"مطبق","discription":"عمق 3.5م","code":"503"}},{"type":"Feature","id":56,"geometry":{"type":"Point","coordinates":[30.544346569000027,25.458071601000029]},"properties":{"OID":56,"Name":"مطبق","discription":"عمق 3.6م","code":"503"}},{"type":"Feature","id":57,"geometry":{"type":"Point","coordinates":[30.544352676000074,25.458382106000045]},"properties":{"OID":57,"Name":"مطبق","discription":"عمق 3.8م","code":"503"}},{"type":"Feature","id":58,"geometry":{"type":"Point","coordinates":[30.544352592000052,25.458682471000031]},"properties":{"OID":58,"Name":"مطبق","discription":"عمق 4م","code":"503"}},{"type":"Feature","id":59,"geometry":{"type":"Point","coordinates":[30.544990000000041,25.458666915000038]},"properties":{"OID":59,"Name":"مطبق","discription":"عمق 4.1م","code":"503"}},{"type":"Feature","id":60,"geometry":{"type":"Point","coordinates":[30.545312738000064,25.458614853000029]},"properties":{"OID":60,"Name":"مطبق","discription":"عمق 4.2م","code":"503"}},{"type":"Feature","id":61,"geometry":{"type":"Point","coordinates":[30.545556605000058,25.458506827000065]},"properties":{"OID":61,"Name":"مطبق","discription":"عمق 4.3م","code":"503"}},{"type":"Feature","id":62,"geometry":{"type":"Point","coordinates":[30.54533820000006,25.459681400000079]},"properties":{"OID":62,"Name":"مطبق","discription":"عمق 3.2م","code":"503"}},{"type":"Feature","id":63,"geometry":{"type":"Point","coordinates":[30.545052284000064,25.459813248000046]},"properties":{"OID":63,"Name":"مطبق","discription":"عمق 3.3م","code":"503"}},{"type":"Feature","id":64,"geometry":{"type":"Point","coordinates":[30.544623801000057,25.46001294000007]},"properties":{"OID":64,"Name":"مطبق","discription":"عمق 3.4م","code":"503"}},{"type":"Feature","id":65,"geometry":{"type":"Point","coordinates":[30.540999320000026,25.457632172000046]},"properties":{"OID":65,"Name":"مطبق","discription":"عمق 3م","code":"503"}},{"type":"Feature","id":66,"geometry":{"type":"Point","coordinates":[30.541019399000049,25.457744399000035]},"properties":{"OID":66,"Name":"مطبق","discription":"عمق 2.5م","code":"502"}},{"type":"Feature","id":67,"geometry":{"type":"Point","coordinates":[30.541844883000067,25.461750610000024]},"properties":{"OID":67,"Name":"مطبق","discription":"عمق 2.5م","code":"502"}},{"type":"Feature","id":68,"geometry":{"type":"Point","coordinates":[30.541724147000025,25.462671822000061]},"properties":{"OID":68,"Name":"مطبق","discription":"عمق 2.5م","code":"502"}},{"type":"Feature","id":69,"geometry":{"type":"Point","coordinates":[30.541708710000023,25.463060098000028]},"properties":{"OID":69,"Name":"مطبق","discription":"عمق 2.5م","code":"502"}},{"type":"Feature","id":70,"geometry":{"type":"Point","coordinates":[30.541700032000051,25.463461083000027]},"properties":{"OID":70,"Name":"مطبق","discription":"عمق 2.5م","code":"502"}},{"type":"Feature","id":71,"geometry":{"type":"Point","coordinates":[30.541616716000078,25.463137419000077]},"properties":{"OID":71,"Name":"مطبق","discription":"عمق 2م","code":"503"}},{"type":"Feature","id":72,"geometry":{"type":"Point","coordinates":[30.541680345000032,25.46265586800007]},"properties":{"OID":72,"Name":"مطبق","discription":"عمق 2م","code":"503"}},{"type":"Feature","id":73,"geometry":{"type":"Point","coordinates":[30.541711178000071,25.462281589000042]},"properties":{"OID":73,"Name":"مطبق","discription":"عمق 2م","code":"503"}},{"type":"Feature","id":74,"geometry":{"type":"Point","coordinates":[30.541794964000076,25.461677812000062]},"properties":{"OID":74,"Name":"مطبق","discription":"عمق 2م","code":"503"}},{"type":"Feature","id":75,"geometry":{"type":"Point","coordinates":[30.545819162000043,25.458306171000061]},"properties":{"OID":75,"Name":null,"discription":"عمق 4.4م","code":"503"}},{"type":"Feature","id":76,"geometry":{"type":"Point","coordinates":[30.546077569000033,25.458124249000036]},"properties":{"OID":76,"Name":null,"discription":"عمق 4.5م","code":"503"}},{"type":"Feature","id":77,"geometry":{"type":"Point","coordinates":[30.546338671000058,25.458037853000064]},"properties":{"OID":77,"Name":null,"discription":"عمق 4.6م","code":"503"}},{"type":"Feature","id":78,"geometry":{"type":"Point","coordinates":[30.546618283000043,25.457858643000066]},"properties":{"OID":78,"Name":null,"discription":"عمق 4.7م","code":"503"}},{"type":"Feature","id":79,"geometry":{"type":"Point","coordinates":[30.546956586000078,25.45767584400005]},"properties":{"OID":79,"Name":null,"discription":"عمق 4.8م","code":"503"}},{"type":"Feature","id":80,"geometry":{"type":"Point","coordinates":[30.545816377000051,25.459463353000046]},"properties":{"OID":80,"Name":null,"discription":"عمق 3.1م","code":"503"}},{"type":"Feature","id":82,"geometry":{"type":"Point","coordinates":[30.545988003000048,25.459387804000073]},"properties":{"OID":82,"Name":null,"discription":"عمق 3م","code":"503"}},{"type":"Feature","id":83,"geometry":{"type":"Point","coordinates":[30.546163603000025,25.459295134000058]},"properties":{"OID":83,"Name":null,"discription":"عمق 2.9م","code":"502"}},{"type":"Feature","id":84,"geometry":{"type":"Point","coordinates":[30.546530818000065,25.459111939000024]},"properties":{"OID":84,"Name":null,"discription":"عمق 2.8م","code":"502"}},{"type":"Feature","id":85,"geometry":{"type":"Point","coordinates":[30.546902569000054,25.458938127000067]},"properties":{"OID":85,"Name":null,"discription":"عمق 2.7م","code":"502"}},{"type":"Feature","id":86,"geometry":{"type":"Point","coordinates":[30.547121788000027,25.45886172400003]},"properties":{"OID":86,"Name":null,"discription":"عمق 2.6م","code":"502"}},{"type":"Feature","id":87,"geometry":{"type":"Point","coordinates":[30.547192187000064,25.458839041000033]},"properties":{"OID":87,"Name":null,"discription":"عمق 2.5م","code":"502"}},{"type":"Feature","id":88,"geometry":{"type":"Point","coordinates":[30.547675505000029,25.458572576000051]},"properties":{"OID":88,"Name":null,"discription":"عمق 2.4م","code":"502"}},{"type":"Feature","id":89,"geometry":{"type":"Point","coordinates":[30.547965082000076,25.458448497000063]},"properties":{"OID":89,"Name":null,"discription":"عمق 2.3م","code":"502"}}]
}