{
  "type" : "FeatureCollection",
  "features" : [{"type":"Feature","id":1,"geometry":{"type":"LineString","coordinates":[[30.543622088000063,25.455775522000067],[30.543683121000072,25.455904791000023],[30.543727758000045,25.456060365000042],[30.543746929000065,25.456137684000055],[30.543875968000066,25.456421689000024],[30.543994004000069,25.456690261000062],[30.544114912000055,25.456964275000075],[30.544219546000079,25.457233060000078],[30.544275713000047,25.457512230000077],[30.544329191000031,25.457801284000027],[30.544344265000063,25.458070290000023],[30.544352760000038,25.458385225000029],[30.544352592000052,25.458682471000031],[30.544350845000054,25.458684452000057]]},"properties":{"OID":1,"Name":"خط صرف عمومي فخار","discription":"  عمق يتراوح (2م - 4م) - 8 بوصة","Shape_Length":0.0030408001425027212,"code":"5172"}},{"type":"Feature","id":3,"geometry":{"type":"LineString","coordinates":[[30.542357632000062,25.457184768000047],[30.542287624000039,25.457185480000078],[30.541890590000037,25.457292578000079],[30.541797526000039,25.457358389000035],[30.541652511000052,25.457426888000043],[30.541427788000078,25.457533381000076],[30.541019399000049,25.457744399000035]]},"properties":{"OID":3,"Name":"خط صرف فرعي ","discription":"عمق 2م  -  8 بوصة","Shape_Length":0.0014639618958504331,"code":"5142"}},{"type":"Feature","id":4,"geometry":{"type":"LineString","coordinates":[[30.547965082000076,25.458448497000063],[30.547669982000059,25.458574942000041],[30.547190888000046,25.458839759000057],[30.546947588000023,25.458917098000029],[30.546535937000044,25.459109385000033],[30.546128175000035,25.45931280800005],[30.545972498000026,25.459396100000049],[30.545847408000043,25.459449466000024],[30.545336062000047,25.459678300000064],[30.545050722000042,25.459813374000078],[30.544624721000048,25.46001265600006],[30.544198815000072,25.46014408800005],[30.544031191000045,25.460148703000073],[30.543612454000026,25.460175928000069],[30.543252100000075,25.460178767000059],[30.542789635000076,25.460195934000069],[30.542018016000043,25.460231832000034]]},"properties":{"OID":4,"Name":"خط صرف عمومي فخار  ","discription":"عمق 4 متر - 12 بوصة","Shape_Length":0.0063212004057911558,"code":"5174"}},{"type":"Feature","id":5,"geometry":{"type":"LineString","coordinates":[[30.541700032000051,25.463461083000027],[30.541708636000067,25.463062008000065],[30.541723721000039,25.462675070000046],[30.541844881000031,25.461750625000036],[30.541910938000058,25.461227846000043],[30.541941402000077,25.460859405000065],[30.541988082000046,25.460495254000023],[30.54201822400006,25.460231712000052]]},"properties":{"OID":5,"Name":"خط صرف الألف الجديد ","discription":"عمق 2.5م - 20 بوصة","Shape_Length":0.0032477756315217416,"code":"5146"}},{"type":"Feature","id":6,"geometry":{"type":"LineString","coordinates":[[30.542018016000043,25.460231832000034],[30.542049937000058,25.459832284000072],[30.541854891000071,25.459329515000036],[30.541450330000032,25.458522293000044],[30.541180496000038,25.458115955000039],[30.541147874000046,25.45804055800005],[30.540856223000048,25.457368247000034],[30.540518341000052,25.45662997900007],[30.54026503700004,25.455879140000036]]},"properties":{"OID":6,"Name":"خط صرف الألف الجديد ","discription":"عمق 2.5م - 20 بوصة","Shape_Length":0.0047501225349668658,"code":"5146"}},{"type":"Feature","id":7,"geometry":{"type":"LineString","coordinates":[[30.541616716000078,25.463137419000077],[30.54168091400004,25.46265156100003],[30.541710842000043,25.462284010000076],[30.541794287000073,25.461681876000057],[30.541878371000053,25.461177109000062],[30.542018016000043,25.460231832000034]]},"properties":{"OID":7,"Name":"خط صرف قديم عمومي فخار  ","discription":"عمق 3م - 12 بوصة","Shape_Length":0.0029339955020514681,"code":"5174"}},{"type":"Feature","id":8,"geometry":{"type":"LineString","coordinates":[[30.541059416000053,25.461332731000027],[30.541478942000026,25.461287477000042],[30.541841531000046,25.461276311000063],[30.541916651000065,25.46073455800007],[30.542018016000043,25.460231832000034]]},"properties":{"OID":8,"Name":"خط صرف فرعي ","discription":"  عمق يتراوح (2م - 3م) - 8 بوصة","Shape_Length":0.0018445002428142494,"code":"5272"}},{"type":"Feature","id":9,"geometry":{"type":"LineString","coordinates":[[30.542018016000043,25.460231832000034],[30.541935737000074,25.459817487000066],[30.541831439000077,25.459519619000048],[30.541688991000058,25.459181924000063],[30.541624723000041,25.459000338000067],[30.541569216000028,25.458888915000045],[30.541318886000056,25.458379453000077],[30.541116336000073,25.457877452000048],[30.541003777000071,25.457636321000052],[30.540867730000059,25.457408930000042],[30.540707628000064,25.457128166000075],[30.540472446000024,25.456635748000053],[30.54022098300004,25.455886333000024]]},"properties":{"OID":9,"Name":"خط صرف قديم فخار","discription":"عمق 3م - 10 بوصة","Shape_Length":0.0047210884272907601,"code":"5173"}},{"type":"Feature","id":10,"geometry":{"type":"LineString","coordinates":[[30.540669921000074,25.457162760000074],[30.540709442000036,25.457131347000029]]},"properties":{"OID":10,"Name":"خط صرف فرعي فخار","discription":"عمق 3م - 10 بوصة","Shape_Length":5.0484512574037888e-05,"code":"5273"}},{"type":"Feature","id":11,"geometry":{"type":"LineString","coordinates":[[30.54095935600003,25.457656933000067],[30.540999320000026,25.457632172000046]]},"properties":{"OID":11,"Name":"خط صرف فرعي فخار","discription":"عمق 3م - 10 بوصة","Shape_Length":4.7013066456443815e-05,"code":"5273"}},{"type":"Feature","id":12,"geometry":{"type":"LineString","coordinates":[[30.541042589000028,25.457906527000034],[30.541115897000054,25.457876512000041]]},"properties":{"OID":12,"Name":"خط صرف فرعي فخار","discription":"عمق 3م - 10 بوصة","Shape_Length":7.9214664629598472e-05,"code":"5273"}},{"type":"Feature","id":13,"geometry":{"type":"LineString","coordinates":[[30.541876609000042,25.459797181000056],[30.541935817000024,25.459817895000072]]},"properties":{"OID":13,"Name":"خط صرف فرعي فخار","discription":"عمق 3م - 10 بوصة","Shape_Length":6.2726844799581847e-05,"code":"5273"}},{"type":"Feature","id":14,"geometry":{"type":"LineString","coordinates":[[30.544056279000074,25.456745807000061],[30.544195796000054,25.457059958000059],[30.544340955000052,25.457449722000035],[30.544277199000078,25.457520260000024]]},"properties":{"OID":14,"Name":"خط صرف قديم فخار غير مستغل","discription":"8 بوصة","Shape_Length":0.00085473645068472211,"code":"5172"}},{"type":"Feature","id":15,"geometry":{"type":"LineString","coordinates":[[30.544352592000052,25.458682471000031],[30.544990049000035,25.458666914000048],[30.545313005000025,25.458614810000029],[30.545556755000064,25.458506761000024],[30.545829699000024,25.458298116000037],[30.546084413000074,25.458119448000048],[30.546349075000023,25.458034514000076],[30.546605464000038,25.457865569000035],[30.546956586000078,25.45767584400005]]},"properties":{"OID":15,"Name":"خط صرف عمومي فخار","discription":"  عمق يتراوح (4م - 4.5م) - 8 بوصة","Shape_Length":0.0028701944083669773,"code":"5174"}}]
}