{
  "type" : "FeatureCollection",
  "features" : [{"type":"Feature","id":57,"geometry":{"type":"LineString","coordinates":[[30.541851713000028,25.459465220000027],[30.541523303000076,25.459566261000077]]},"properties":{"OID":57,"Shape_Length":0.00034360211256563691,"code":"6244","discription":"عمق 1 م - 4 بوصة","Name":"خط مياه"}},{"type":"Feature","id":58,"geometry":{"type":"LineString","coordinates":[[30.540892986000074,25.457402128000069],[30.540662172000054,25.457479546000059]]},"properties":{"OID":58,"Shape_Length":0.00024345153383659087,"code":"6245","discription":"عمق 1 م - 6 بوصة","Name":"خط مياه"}},{"type":"Feature","id":99,"geometry":{"type":"LineString","coordinates":[[30.542055541000025,25.457266329000049],[30.541350858000044,25.457549867000068],[30.541362237000044,25.457582873000035]]},"properties":{"OID":99,"Shape_Length":0.00079449911095124726,"code":"6246","discription":"عمق 1 م - 8 بوصة","Name":"خط مياه"}},{"type":"Feature","id":538,"geometry":{"type":"LineString","coordinates":[[30.54418637200007,25.460950694000076],[30.544288668000036,25.460080880000078],[30.544461191000039,25.460008574000028],[30.544601190000037,25.459948103000045],[30.54491401000007,25.459815098000036],[30.544933578000041,25.459806267000033]]},"properties":{"OID":538,"Shape_Length":0.0015767617974802005,"code":"6245","discription":"عمق 1 م - 6 بوصة","Name":"خط مياه"}},{"type":"Feature","id":539,"geometry":{"type":"LineString","coordinates":[[30.544180471000061,25.460068131000071],[30.544170590000078,25.459367890000067],[30.544228990000079,25.45886568800006],[30.544258634000073,25.458592718000034],[30.544265074000066,25.45827560400005],[30.544260355000063,25.457914548000076],[30.54421883200007,25.457585693000055],[30.544105253000055,25.457244693000064],[30.543990121000036,25.456980237000039],[30.543506643000057,25.455836711000075]]},"properties":{"OID":539,"Shape_Length":0.0043795852415197192,"code":"6245","discription":"عمق 1 م - 6 بوصة","Name":"خط مياه"}},{"type":"Feature","id":540,"geometry":{"type":"LineString","coordinates":[[30.541662790000032,25.462709009000037],[30.541836767000063,25.461276506000047],[30.541979345000072,25.460250115000065],[30.541994042000056,25.460152596000057],[30.54258789000005,25.460161791000075],[30.542601047000062,25.460107318000041],[30.542902432000062,25.460101427000041],[30.543662027000039,25.460081330000037],[30.544180471000061,25.460068131000071],[30.544288668000036,25.460080880000078],[30.544279507000056,25.459938524000052],[30.544295551000062,25.459741896000025],[30.544279008000046,25.459369705000029],[30.544274511000026,25.458997714000077],[30.544292858000063,25.458830775000024],[30.544777667000062,25.458827601000053],[30.545040044000075,25.458800686000075]]},"properties":{"OID":540,"Shape_Length":0.00691774139127058,"code":"6245","discription":"عمق 1 م - 6 بوصة","Name":"خط مياه"}},{"type":"Feature","id":560,"geometry":{"type":"LineString","coordinates":[[30.541565596000055,25.458102477000068],[30.541336494000063,25.458109577000073],[30.541251948000024,25.458119099000044]]},"properties":{"OID":560,"Shape_Length":0.00031429250845799357,"code":"6245","discription":"عمق 1 م - 6 بوصة","Name":"خط مياه"}},{"type":"Feature","id":601,"geometry":{"type":"LineString","coordinates":[[30.541994042000056,25.460152596000057],[30.541960016000075,25.459752643000058],[30.541805497000041,25.459342566000032],[30.54180572000007,25.459331631000055],[30.541609824000034,25.458890802000042],[30.541506297000069,25.458648417000063],[30.541367965000063,25.458339816000034],[30.541332938000039,25.458284536000065],[30.541251948000024,25.458119099000044],[30.541171404000067,25.457931792000068],[30.541159581000045,25.457920655000066],[30.540915726000037,25.457468084000027],[30.540892966000058,25.457402071000047],[30.54076490500006,25.457181152000032],[30.540552867000031,25.456675786000062]]},"properties":{"OID":601,"Shape_Length":0.0037917945023903691,"code":"6131","discription":"عمق 1 م - 8 بوصة","Name":"خط مياه رئيسي"}},{"type":"Feature","id":603,"geometry":{"type":"LineString","coordinates":[[30.542261923000069,25.459598459000063],[30.542462267000076,25.45982058900006]]},"properties":{"OID":603,"Shape_Length":0.00029913116727869042,"code":"6131","discription":"عمق 1 م - 8 بوصة","Name":"خط مياه"}},{"type":"Feature","id":617,"geometry":{"type":"LineString","coordinates":[[30.542462267000076,25.45982058900006],[30.542528769000057,25.460106108000048],[30.542601047000062,25.460107318000041],[30.542601081000043,25.460107350000044]]},"properties":{"OID":617,"Shape_Length":0.00036549623319712284,"code":"6245","discription":"عمق 1 م - 6 بوصة","Name":"خط مياه"}},{"type":"Feature","id":642,"geometry":{"type":"LineString","coordinates":[[30.542302106000079,25.459679530000074],[30.542069654000045,25.459748555000033],[30.542033514000025,25.459747949000075]]},"properties":{"OID":642,"Shape_Length":0.0002786288591177425,"code":"6245","discription":"عمق 1 م - 6 بوصة","Name":"خط مياه"}},{"type":"Feature","id":708,"geometry":{"type":"LineString","coordinates":[[30.543914551000057,25.456801499000051],[30.542540498000051,25.457121311000037],[30.542419370000061,25.457152098000051],[30.542055541000025,25.457266329000049],[30.542099947000054,25.457453031000057]]},"properties":{"OID":708,"Shape_Length":0.0021090100345470676,"code":"6246","discription":"عمق 1 م - 8 بوصة","Name":"خط مياه"}},{"type":"Feature","id":753,"geometry":{"type":"LineString","coordinates":[[30.541350858000044,25.457549867000068],[30.541132248000054,25.457633713000064],[30.541120647000071,25.457611641000028],[30.54104032500004,25.457413400000064],[30.540994364000028,25.457303244000059],[30.540763890000051,25.456785263000029],[30.540695394000068,25.45659815700003],[30.540680786000053,25.456558103000077]]},"properties":{"OID":753,"Shape_Length":0.0014011532801109941,"code":"6246","discription":"عمق 1 م - 8 بوصة","Name":"خط مياه"}},{"type":"Feature","id":902,"geometry":{"type":"LineString","coordinates":[[30.543251267000073,25.460092198000041],[30.543249115000037,25.46078882200004]]},"properties":{"OID":902,"Shape_Length":0.00069662732395430686,"code":"6244","discription":"عمق 1 م - 4 بوصة","Name":"خط مياه"}},{"type":"Feature","id":904,"geometry":{"type":"LineString","coordinates":[[30.541278372000079,25.458987959000069],[30.541609824000034,25.458890802000042]]},"properties":{"OID":904,"Shape_Length":0.00034539819184300992,"code":"6245","discription":"عمق 1 م - 6 بوصة","Name":"خط مياه"}},{"type":"Feature","id":905,"geometry":{"type":"LineString","coordinates":[[30.541367965000063,25.458339816000034],[30.541019644000073,25.458436438000035]]},"properties":{"OID":905,"Shape_Length":0.0003614738301982184,"code":"6245","discription":"عمق 1 م - 6 بوصة","Name":"خط مياه"}},{"type":"Feature","id":906,"geometry":{"type":"LineString","coordinates":[[30.540792191000037,25.458013651000044],[30.541159581000045,25.457920655000066]]},"properties":{"OID":906,"Shape_Length":0.0003789771340303328,"code":"6244","discription":"عمق 1 م - 4 بوصة","Name":"خط مياه"}},{"type":"Feature","id":907,"geometry":{"type":"LineString","coordinates":[[30.54076490500006,25.457181152000032],[30.540491198000041,25.457253921000074]]},"properties":{"OID":907,"Shape_Length":0.00028321519949798456,"code":"6244","discription":"عمق 1 م - 4 بوصة","Name":"خط مياه"}},{"type":"Feature","id":909,"geometry":{"type":"LineString","coordinates":[[30.541594517000078,25.459828308000056],[30.541959130000066,25.459752700000024],[30.542033514000025,25.459747949000075],[30.541923516000054,25.459464869000044],[30.541671610000037,25.458815267000034],[30.541463446000023,25.458385171000032],[30.541336494000063,25.458109577000073],[30.541302134000034,25.458021492000057],[30.541132249000043,25.457633712000074]]},"properties":{"OID":909,"Shape_Length":0.0027465018598184397,"code":"6245","discription":"عمق 1 م - 6 بوصة","Name":"خط مياه"}},{"type":"Feature","id":910,"geometry":{"type":"LineString","coordinates":[[30.541917268000077,25.461240439000051],[30.54188210500007,25.461484417000065],[30.541777901000046,25.462333489000059],[30.54164817000003,25.463441966000062]]},"properties":{"OID":910,"Shape_Length":0.0022179840445203905,"code":"6245","discription":"عمق 0.7 م - 6 بوصة","Name":"خط مياه"}},{"type":"Feature","id":911,"geometry":{"type":"LineString","coordinates":[[30.541862473000037,25.46164439000006],[30.542385867000064,25.461899424000023]]},"properties":{"OID":911,"Shape_Length":0.00058222299885955266,"code":"6244","discription":"عمق 0.7 م - 4 بوصة","Name":"خط مياه"}},{"type":"Feature","id":912,"geometry":{"type":"LineString","coordinates":[[30.541923404000045,25.460652827000047],[30.542468831000065,25.460895777000076]]},"properties":{"OID":912,"Shape_Length":0.00059708903428626846,"code":"6244","discription":"عمق 0.7 م - 4 بوصة","Name":"خط مياه"}},{"type":"Feature","id":913,"geometry":{"type":"LineString","coordinates":[[30.54172916300007,25.462715159000027],[30.542210369000031,25.462948307000033]]},"properties":{"OID":913,"Shape_Length":0.00053471226309612671,"code":"6244","discription":"عمق 0.7 م - 4 بوصة","Name":"خط مياه"}},{"type":"Feature","id":914,"geometry":{"type":"LineString","coordinates":[[30.541687460000048,25.463111968000078],[30.54212708700004,25.463333694000028]]},"properties":{"OID":914,"Shape_Length":0.00049237619578457637,"code":"6244","discription":"عمق 0.7 م - 4 بوصة","Name":"خط مياه"}},{"type":"Feature","id":915,"geometry":{"type":"LineString","coordinates":[[30.541846386000032,25.461207263000063],[30.542528606000076,25.461526574000061]]},"properties":{"OID":915,"Shape_Length":0.00075324872597326445,"code":"6244","discription":"عمق 0.7 م - 4 بوصة","Name":"خط مياه"}},{"type":"Feature","id":916,"geometry":{"type":"LineString","coordinates":[[30.541793373000075,25.462207421000073],[30.542299265000054,25.462480594000056]]},"properties":{"OID":916,"Shape_Length":0.00057493495593969669,"code":"6244","discription":"عمق 0.7 م - 4 بوصة","Name":"خط مياه"}},{"type":"Feature","id":917,"geometry":{"type":"LineString","coordinates":[[30.541830245000028,25.461906983000063],[30.54236241600006,25.462152699000058]]},"properties":{"OID":917,"Shape_Length":0.00058615895960754385,"code":"6245","discription":"عمق 0.7 م - 6 بوصة","Name":"خط مياه"}},{"type":"Feature","id":918,"geometry":{"type":"LineString","coordinates":[[30.541774581000027,25.462361857000076],[30.54228898100007,25.462621668000054]]},"properties":{"OID":918,"Shape_Length":0.00057628909043431218,"code":"6244","discription":"عمق 0.7 م - 4 بوصة","Name":"خط مياه"}}]
}