{
  "type" : "FeatureCollection",
  "features" : [{"type":"Feature","id":1,"geometry":{"type":"Point","coordinates":[30.542145081000058,25.457238216000064]},"properties":{"OID":1,"code":"61","Name":"محبس مياه","discription":"8 بوصة"}},{"type":"Feature","id":2,"geometry":{"type":"Point","coordinates":[30.543863894000026,25.456813290000071]},"properties":{"OID":2,"code":"61","Name":"محبس مياه","discription":"6 بوصة"}},{"type":"Feature","id":3,"geometry":{"type":"Point","coordinates":[30.541161072000079,25.457622658000048]},"properties":{"OID":3,"code":"61","Name":"محبس مياه","discription":"8 بوصة"}},{"type":"Feature","id":4,"geometry":{"type":"Point","coordinates":[30.54132224500006,25.457560841000031]},"properties":{"OID":4,"code":"61","Name":"محبس مياه","discription":"8 بوصة"}},{"type":"Feature","id":5,"geometry":{"type":"Point","coordinates":[30.540733829000033,25.457189414000027]},"properties":{"OID":5,"code":"61","Name":"محبس مياه","discription":"4 بوصة"}},{"type":"Feature","id":6,"geometry":{"type":"Point","coordinates":[30.540863867000041,25.457411895000064]},"properties":{"OID":6,"code":"61","Name":"محبس مياه","discription":"6 بوصة"}},{"type":"Feature","id":7,"geometry":{"type":"Point","coordinates":[30.541107523000051,25.457933832000037]},"properties":{"OID":7,"code":"61","Name":"محبس مياه","discription":"4 بوصة"}},{"type":"Feature","id":8,"geometry":{"type":"Point","coordinates":[30.541307488000029,25.45835659200003]},"properties":{"OID":8,"code":"61","Name":"محبس مياه","discription":"6 بوصة"}},{"type":"Feature","id":9,"geometry":{"type":"Point","coordinates":[30.541580896000028,25.458899282000061]},"properties":{"OID":9,"code":"61","Name":"محبس مياه","discription":"6 بوصه"}},{"type":"Feature","id":10,"geometry":{"type":"Point","coordinates":[30.541811687000063,25.459477535000076]},"properties":{"OID":10,"code":"61","Name":"محبس مياه","discription":"4 بوصة"}},{"type":"Feature","id":11,"geometry":{"type":"Point","coordinates":[30.542081643000074,25.460153953000031]},"properties":{"OID":11,"code":"61","Name":"محبس مياه","discription":"عمق 0.7 م - 6 بوصة"}},{"type":"Feature","id":13,"geometry":{"type":"Point","coordinates":[30.542641354000068,25.460106530000076]},"properties":{"OID":13,"code":"61","Name":"محبس مياه","discription":"6 بوصة"}},{"type":"Feature","id":14,"geometry":{"type":"Point","coordinates":[30.544237380000027,25.458788432000063]},"properties":{"OID":14,"code":"61","Name":"محبس مياه","discription":"عمق 1 م - 6 بوصة"}},{"type":"Feature","id":15,"geometry":{"type":"Point","coordinates":[30.544446501000039,25.460014731000058]},"properties":{"OID":15,"code":"61","Name":"محبس مياه عمومي","discription":" عمق 1 م - 6 بوصة"}},{"type":"Feature","id":16,"geometry":{"type":"Point","coordinates":[30.542026695000061,25.461291657000061]},"properties":{"OID":16,"code":"61","Name":"محبس مياه","discription":"عمق 0.7 م - 4 بوصة"}},{"type":"Feature","id":17,"geometry":{"type":"Point","coordinates":[30.541947277000077,25.461961020000047]},"properties":{"OID":17,"code":"61","Name":"محبس مياه","discription":"عمق 0.5 م - 6 بوصة"}},{"type":"Feature","id":18,"geometry":{"type":"Point","coordinates":[30.541869474000066,25.462409785000034]},"properties":{"OID":18,"code":"61","Name":"محبس مياه","discription":"4 بوصة"}},{"type":"Feature","id":19,"geometry":{"type":"Point","coordinates":[30.541813647000026,25.462756093000053]},"properties":{"OID":19,"code":"61","Name":"محبس مياه","discription":"4 بوصة"}}]
}